FENGYUN 3D              
1 43010U 17072A   26203.24372060  .00000092  00000+0  65434-4 0  9998
2 43010  99.0156 178.3038 0001109   0.6161 359.5016 14.19745864449965
NOAA 20 (JPSS-1)        
1 43013U 17073A   26203.24445070  .00000032  00000+0  36215-4 0  9993
2 43013  98.7772 142.3967 0001625 116.7646 243.3696 14.19517468449444
GOES 17                 
1 43226U 18022A   26203.24072392 -.00000180  00000+0  00000+0 0  9990
2 43226   1.0246  85.1623 0000667  57.8999 154.0880  1.00272003 30771
SENTINEL-3B             
1 43437U 18039A   26203.18450462  .00000068  00000+0  45951-4 0  9996
2 43437  98.6230 270.2113 0001295 118.4531 241.6780 14.26737791429119
FENGYUN 2H              
1 43491U 18050A   26203.14350167 -.00000125  00000+0  00000+0 0  9992
2 43491   3.1193  78.6663 0002037 125.8622 226.0472  1.00267254 29780
METOP-C                 
1 43689U 18087A   26203.26171352  .00000052  00000+0  43522-4 0  9990
2 43689  98.6624 262.2205 0002082  84.6710 275.4705 14.21504172399811
GEO-KOMPSAT-2A          
1 43823U 18100A   26202.71300580 -.00000342  00000+0  00000+0 0  9994
2 43823   0.0281 139.7111 0002459 318.0516 226.6486  1.00271774 27978
METEOR-M2 2             
1 44387U 19038A   26203.22715089  .00000383  00000+0  18566-3 0  9996
2 44387  98.9174 191.0336 0000287 350.4314   9.6859 14.24375029366285
ARKTIKA-M 1             
1 47719U 21016A   26198.89672402 -.00000295  00000+0  00000+0 0  9997
2 47719  63.2571  53.1467 7298516 270.0868  14.5016  2.00610215 39409
FENGYUN 3E              
1 49008U 21062A   26203.29419264 -.00000010  00000+0  16196-4 0  9990
2 49008  98.7512 206.3123 0001913  27.6238 332.5039 14.19906279261567
GOES 18                 
1 51850U 22021A   26202.73172589  .00000099  00000+0  00000+0 0  9996
2 51850   0.0156 137.4959 0000421  20.0405 268.3610  1.00271362  6935
NOAA 21 (JPSS-2)        
1 54234U 22150A   26203.27663463  .00000027  00000+0  33516-4 0  9998
2 54234  98.7059 141.4766 0002913  91.8479 268.3031 14.19541909191524
METEOSAT-12 (MTG-I1)    
1 54743U 22170C   26203.07614079 -.00000006  00000+0  00000+0 0  9997
2 54743   0.7320  20.8560 0004122  81.0232 224.9639  1.00269804 13327
TIANMU-1 03             
1 55973U 23039A   26203.28525753  .00017057  00000+0  32580-3 0  9996
2 55973  97.5251  18.6568 0001978 359.2474   0.8773 15.48189706186260
TIANMU-1 04             
1 55974U 23039B   26203.26080601  .00017303  00000+0  32329-3 0  9998
2 55974  97.5192  17.7882 0002309 344.1189  15.9988 15.48821267186270
TIANMU-1 05             
1 55975U 23039C   26203.26774332  .00016531  00000+0  31666-3 0  9995
2 55975  97.5235  18.2407 0002369  28.0328 332.1050 15.48112724186249
TIANMU-1 06             
1 55976U 23039D   26203.26646424  .00016956  00000+0  31801-3 0  9998
2 55976  97.5244  18.9109 0002386  16.4828 343.6499 15.48715720186273
FENGYUN 3G              
1 56232U 23055A   26203.29343802  .00027122  00000+0  41610-3 0  9995
2 56232  49.9913 164.9303 0006816  89.3503 270.8246 15.54025563185469
METEOR-M2 3             
1 57166U 23091A   26203.29984214 -.00000017  00000+0  11195-4 0  9991
2 57166  98.6064 257.5559 0005069  74.4584 285.7154 14.24049316159517
TIANMU-1 07             
1 57399U 23101A   26203.28623488  .00006716  00000+0  23255-3 0  9993
2 57399  97.2575 253.1529 0003229  50.0390 310.1134 15.30172536167011
TIANMU-1 08             
1 57400U 23101B   26203.25278561  .00006329  00000+0  21927-3 0  9995
2 57400  97.2564 252.8857 0003891  26.7220 333.4220 15.30175035167009
TIANMU-1 09             
1 57401U 23101C   26203.30074838  .00006951  00000+0  24024-3 0  9995
2 57401  97.2523 252.3307 0003819  48.2951 311.8617 15.30219341167010
TIANMU-1 10             
1 57402U 23101D   26203.33440966  .00006836  00000+0  23648-3 0  9991
2 57402  97.2601 253.4500 0004982  34.2178 325.9383 15.30193119167013
FENGYUN 3F              
1 57490U 23111A   26203.27725831  .00000014  00000+0  26914-4 0  9991
2 57490  98.6820 272.6293 0001130  75.1234 285.0067 14.19944237153841
ARKTIKA-M 2             
1 58584U 23198A   26202.15670971  .00000142  00000+0  00000+0 0  9996
2 58584  63.2169 150.5623 6912649 267.3229  18.7284  2.00607150 19000
TIANMU-1 11             
1 58645U 23205A   26203.30484373  .00005520  00000+0  20894-3 0  9992
2 58645  97.3449 224.3170 0007207 230.6173 129.4429 15.27313376142885
TIANMU-1 12             
1 58646U 23205B   26203.01626574  .00001195  00000+0  47822-4 0  9997
2 58646  97.3437 223.7764 0006528 211.5474 148.5374 15.26992628142829
TIANMU-1 13             
1 58647U 23205C   26203.31150111  .00005781  00000+0  21988-3 0  9999
2 58647  97.3465 224.3501 0006610 185.1962 174.9210 15.27139128142862
TIANMU-1 14             
1 58648U 23205D   26203.29569126  .00005818  00000+0  22092-3 0  9995
2 58648  97.3402 223.4890 0007207 192.1071 167.9996 15.27182757142866
TIANMU-1 19             
1 58660U 23208A   26203.30039715  .00009123  00000+0  29717-3 0  9994
2 58660  97.4523 319.7971 0005280 173.3447 186.7866 15.32053320142708
