OBJECT_NAME,OBJECT_ID,EPOCH,MEAN_MOTION,ECCENTRICITY,INCLINATION,RA_OF_ASC_NODE,ARG_OF_PERICENTER,MEAN_ANOMALY,EPHEMERIS_TYPE,CLASSIFICATION_TYPE,NORAD_CAT_ID,ELEMENT_SET_NO,REV_AT_EPOCH,BSTAR,MEAN_MOTION_DOT,MEAN_MOTION_DDOT
FENGYUN 3D,2017-072A,2026-07-22T05:50:57.459840,14.19745864,.00011096,99.0156,178.3038,0.6161,359.5016,0,U,43010,999,44996,.65434042E-4,.92E-6,0
NOAA 20 (JPSS-1),2017-073A,2026-07-22T05:52:00.540480,14.19517468,.0001625,98.7772,142.3967,116.7646,243.3696,0,U,43013,999,44944,.36215286E-4,.32E-6,0
GOES 17,2018-022A,2026-07-22T05:46:38.546688,1.00272003,.00006672,1.0246,85.1623,57.8999,154.0880,0,U,43226,999,3077,0,-.18E-5,0
SENTINEL-3B,2018-039A,2026-07-22T04:25:41.199168,14.26737791,.0001295,98.6230,270.2113,118.4531,241.6780,0,U,43437,999,42911,.45950557E-4,.68E-6,0
FENGYUN 2H,2018-050A,2026-07-22T03:26:38.544288,1.00267254,.0002037,3.1193,78.6663,125.8622,226.0472,0,U,43491,999,2978,0,-.125E-5,0
METOP-C,2018-087A,2026-07-22T06:16:52.048128,14.21504172,.00020823,98.6624,262.2205,84.6710,275.4705,0,U,43689,999,39981,.43521535E-4,.52E-6,0
GEO-KOMPSAT-2A,2018-100A,2026-07-21T17:06:43.701120,1.00271774,.00024597,0.0281,139.7111,318.0516,226.6486,0,U,43823,999,2797,0,-.342E-5,0
METEOR-M2 2,2019-038A,2026-07-22T05:27:05.836896,14.24375029,.00002872,98.9174,191.0336,350.4314,9.6859,0,U,44387,999,36628,.18566228E-3,.383E-5,0
ARKTIKA-M 1,2021-016A,2026-07-17T21:31:16.955328,2.00610215,.72985164,63.2571,53.1467,270.0868,14.5016,0,U,47719,999,3940,0,-.295E-5,0
FENGYUN 3E,2021-062A,2026-07-22T07:03:38.244096,14.19906279,.00019137,98.7512,206.3123,27.6238,332.5039,0,U,49008,999,26156,.16195693E-4,-.1E-6,0
GOES 18,2022-021A,2026-07-21T17:33:41.116896,1.00271362,.00004214,0.0156,137.4959,20.0405,268.3610,0,U,51850,999,693,0,.99E-6,0
NOAA 21 (JPSS-2),2022-150A,2026-07-22T06:38:21.232032,14.19541909,.00029134,98.7059,141.4766,91.8479,268.3031,0,U,54234,999,19152,.33516029E-4,.27E-6,0
METEOSAT-12 (MTG-I1),2022-170C,2026-07-22T01:49:38.564256,1.00269804,.00041226,0.7320,20.8560,81.0232,224.9639,0,U,54743,999,1332,0,-.6E-7,0
TIANMU-1 03,2023-039A,2026-07-22T06:50:46.250592,15.48189706,.00019784,97.5251,18.6568,359.2474,0.8773,0,U,55973,999,18626,.32579704E-3,.17057E-3,0
TIANMU-1 04,2023-039B,2026-07-22T06:15:33.639264,15.48821267,.00023091,97.5192,17.7882,344.1189,15.9988,0,U,55974,999,18627,.32328818E-3,.17303E-3,0
TIANMU-1 05,2023-039C,2026-07-22T06:25:33.022848,15.48112724,.00023693,97.5235,18.2407,28.0328,332.1050,0,U,55975,999,18624,.31665635E-3,.16531E-3,0
TIANMU-1 06,2023-039D,2026-07-22T06:23:42.510336,15.48715720,.00023868,97.5244,18.9109,16.4828,343.6499,0,U,55976,999,18627,.31801282E-3,.16956E-3,0
FENGYUN 3G,2023-055A,2026-07-22T07:02:33.044928,15.54025563,.00068169,49.9913,164.9303,89.3503,270.8246,0,U,56232,999,18546,.41610142E-3,.27122E-3,0
METEOR-M2 3,2023-091A,2026-07-22T07:11:46.360896,14.24049316,.00050693,98.6064,257.5559,74.4584,285.7154,0,U,57166,999,15951,.1119478E-4,-.17E-6,0
TIANMU-1 07,2023-101A,2026-07-22T06:52:10.693632,15.30172536,.00032297,97.2575,253.1529,50.0390,310.1134,0,U,57399,999,16701,.23254507E-3,.6716E-4,0
TIANMU-1 08,2023-101B,2026-07-22T06:04:00.676704,15.30175035,.00038918,97.2564,252.8857,26.7220,333.4220,0,U,57400,999,16700,.21927378E-3,.6329E-4,0
TIANMU-1 09,2023-101C,2026-07-22T07:13:04.660032,15.30219341,.00038194,97.2523,252.3307,48.2951,311.8617,0,U,57401,999,16701,.24023799E-3,.6951E-4,0
TIANMU-1 10,2023-101D,2026-07-22T08:01:32.994624,15.30193119,.00049828,97.2601,253.4500,34.2178,325.9383,0,U,57402,999,16701,.23647606E-3,.6836E-4,0
FENGYUN 3F,2023-111A,2026-07-22T06:39:15.117984,14.19944237,.000113,98.6820,272.6293,75.1234,285.0067,0,U,57490,999,15384,.26913574E-4,.14E-6,0
ARKTIKA-M 2,2023-198A,2026-07-21T03:45:39.718944,2.00607150,.69126494,63.2169,150.5623,267.3229,18.7284,0,U,58584,999,1900,0,.142E-5,0
TIANMU-1 11,2023-205A,2026-07-22T07:18:58.498272,15.27313376,.00072078,97.3449,224.3170,230.6173,129.4429,0,U,58645,999,14288,.20894427E-3,.552E-4,0
TIANMU-1 12,2023-205B,2026-07-22T00:23:25.359936,15.26992628,.00065287,97.3437,223.7764,211.5474,148.5374,0,U,58646,999,14282,.47822081E-4,.1195E-4,0
TIANMU-1 13,2023-205C,2026-07-22T07:28:33.695904,15.27139128,.00066105,97.3465,224.3501,185.1962,174.9210,0,U,58647,999,14286,.21987673E-3,.5781E-4,0
TIANMU-1 14,2023-205D,2026-07-22T07:05:47.724864,15.27182757,.00072079,97.3402,223.4890,192.1071,167.9996,0,U,58648,999,14286,.22092288E-3,.5818E-4,0
TIANMU-1 19,2023-208A,2026-07-22T07:12:34.313760,15.32053320,.00052806,97.4523,319.7971,173.3447,186.7866,0,U,58660,999,14270,.29717291E-3,.9123E-4,0
